STARLINK-36858          
1 68021U 26040G   26067.41668981 -.00957223  33339-3 -11614-2 0  9992
2 68021  97.2805  15.4679 0001068 111.8994 220.2925 16.08195521  2215
STARLINK-36916          
1 68022U 26040H   26067.41668981 -.00944399  32564-3 -11376-2 0  9997
2 68022  97.2809  15.4693 0000989 106.3232 227.8566 16.08308461  2214
STARLINK-36871          
1 68023U 26040J   26067.41668981 -.00961410  33713-3 -11489-2 0  9993
2 68023  97.2806  15.4699 0001001 106.6423 229.4042 16.08436683  2214
STARLINK-36891          
1 68024U 26040K   26067.41668981 -.00934162  32022-3 -11065-2 0  9990
2 68024  97.2805  15.4712 0001045 112.2458 226.1237 16.08572357  2218
STARLINK-36378          
1 68025U 26040L   26067.41668981 -.00940949  32559-3 -10968-2 0  9997
2 68025  97.2810  15.4729 0001019 107.9172 234.5250 16.08825603  2165
STARLINK-36884          
1 68026U 26040M   26067.41668981 -.00933222  32014-3 -10966-2 0  9998
2 68026  97.2807  15.4717 0000873 104.5361 235.9384 16.08698382  2210
STARLINK-36940          
1 68027U 26040N   26067.41668981 -.00922178  32283-3 -93233-3 0  9994
2 68027  97.2786  15.4900 0000987 108.9611 273.3840 16.11022799  2314
STARLINK-36253          
1 68028U 26040P   26067.41668981 -.02147404  13567-2 -44151-2 0  9995
2 68028  97.2798  15.4427 0001695 120.7681 156.2114 15.99470293  2312
STARLINK-36944          
1 68029U 26040Q   26067.41668981 -.00959659  33819-3 -11103-2 0  9991
2 68029  97.2800  15.4731 0000972  98.3560 245.8520 16.08945234  2216
STARLINK-36942          
1 68030U 26040R   26067.41668981 -.00931102  32027-3 -10693-2 0  9999
2 68030  97.2807  15.4741 0000986 107.8597 238.3659 16.09057607  2216
STARLINK-36913          
1 68031U 26040S   26067.41668981 -.00926142  31764-3 -10550-2 0  9997
2 68031  97.2805  15.4750 0000856 101.2951 246.9272 16.09183925  2212
STARLINK-36935          
1 68032U 26040T   26067.41668981 -.00884146  29482-3 -95208-3 0  9993
2 68032  97.2796  15.4807 0000992 103.9660 257.6783 16.10050979  2313
