CCSDS_OMM_VERS = 2.0
CREATION_DATE  = 
ORIGINATOR     = 

OBJECT_NAME    = STARLINK-36858
OBJECT_ID      = 2026-040G
CENTER_NAME    = EARTH
REF_FRAME      = TEME
TIME_SYSTEM    = UTC
MEAN_ELEMENT_THEORY = SGP/SGP4

EPOCH          = 2026-03-08T10:00:01.999584
MEAN_MOTION    = 16.08195521
ECCENTRICITY   = .0001068
INCLINATION    = 97.2805
RA_OF_ASC_NODE = 15.4679
ARG_OF_PERICENTER = 111.8994
MEAN_ANOMALY   = 220.2925

EPHEMERIS_TYPE = 0
CLASSIFICATION_TYPE = U
NORAD_CAT_ID   = 68021
ELEMENT_SET_NO = 999
REV_AT_EPOCH   = 221
BSTAR          = -.11614E-2
MEAN_MOTION_DOT = -.957223E-2
MEAN_MOTION_DDOT = .33339E-3

CCSDS_OMM_VERS = 2.0
CREATION_DATE  = 
ORIGINATOR     = 

OBJECT_NAME    = STARLINK-36916
OBJECT_ID      = 2026-040H
CENTER_NAME    = EARTH
REF_FRAME      = TEME
TIME_SYSTEM    = UTC
MEAN_ELEMENT_THEORY = SGP/SGP4

EPOCH          = 2026-03-08T10:00:01.999584
MEAN_MOTION    = 16.08308461
ECCENTRICITY   = .0000989
INCLINATION    = 97.2809
RA_OF_ASC_NODE = 15.4693
ARG_OF_PERICENTER = 106.3232
MEAN_ANOMALY   = 227.8566

EPHEMERIS_TYPE = 0
CLASSIFICATION_TYPE = U
NORAD_CAT_ID   = 68022
ELEMENT_SET_NO = 999
REV_AT_EPOCH   = 221
BSTAR          = -.11376E-2
MEAN_MOTION_DOT = -.944399E-2
MEAN_MOTION_DDOT = .32564E-3

CCSDS_OMM_VERS = 2.0
CREATION_DATE  = 
ORIGINATOR     = 

OBJECT_NAME    = STARLINK-36871
OBJECT_ID      = 2026-040J
CENTER_NAME    = EARTH
REF_FRAME      = TEME
TIME_SYSTEM    = UTC
MEAN_ELEMENT_THEORY = SGP/SGP4

EPOCH          = 2026-03-08T10:00:01.999584
MEAN_MOTION    = 16.08436683
ECCENTRICITY   = .0001001
INCLINATION    = 97.2806
RA_OF_ASC_NODE = 15.4699
ARG_OF_PERICENTER = 106.6423
MEAN_ANOMALY   = 229.4042

EPHEMERIS_TYPE = 0
CLASSIFICATION_TYPE = U
NORAD_CAT_ID   = 68023
ELEMENT_SET_NO = 999
REV_AT_EPOCH   = 221
BSTAR          = -.11489E-2
MEAN_MOTION_DOT = -.96141E-2
MEAN_MOTION_DDOT = .33713E-3

CCSDS_OMM_VERS = 2.0
CREATION_DATE  = 
ORIGINATOR     = 

OBJECT_NAME    = STARLINK-36891
OBJECT_ID      = 2026-040K
CENTER_NAME    = EARTH
REF_FRAME      = TEME
TIME_SYSTEM    = UTC
MEAN_ELEMENT_THEORY = SGP/SGP4

EPOCH          = 2026-03-08T10:00:01.999584
MEAN_MOTION    = 16.08572357
ECCENTRICITY   = .0001045
INCLINATION    = 97.2805
RA_OF_ASC_NODE = 15.4712
ARG_OF_PERICENTER = 112.2458
MEAN_ANOMALY   = 226.1237

EPHEMERIS_TYPE = 0
CLASSIFICATION_TYPE = U
NORAD_CAT_ID   = 68024
ELEMENT_SET_NO = 999
REV_AT_EPOCH   = 221
BSTAR          = -.11065E-2
MEAN_MOTION_DOT = -.934162E-2
MEAN_MOTION_DDOT = .32022E-3

CCSDS_OMM_VERS = 2.0
CREATION_DATE  = 
ORIGINATOR     = 

OBJECT_NAME    = STARLINK-36378
OBJECT_ID      = 2026-040L
CENTER_NAME    = EARTH
REF_FRAME      = TEME
TIME_SYSTEM    = UTC
MEAN_ELEMENT_THEORY = SGP/SGP4

EPOCH          = 2026-03-08T10:00:01.999584
MEAN_MOTION    = 16.08825603
ECCENTRICITY   = .0001019
INCLINATION    = 97.2810
RA_OF_ASC_NODE = 15.4729
ARG_OF_PERICENTER = 107.9172
MEAN_ANOMALY   = 234.5250

EPHEMERIS_TYPE = 0
CLASSIFICATION_TYPE = U
NORAD_CAT_ID   = 68025
ELEMENT_SET_NO = 999
REV_AT_EPOCH   = 216
BSTAR          = -.10968E-2
MEAN_MOTION_DOT = -.940949E-2
MEAN_MOTION_DDOT = .32559E-3

CCSDS_OMM_VERS = 2.0
CREATION_DATE  = 
ORIGINATOR     = 

OBJECT_NAME    = STARLINK-36884
OBJECT_ID      = 2026-040M
CENTER_NAME    = EARTH
REF_FRAME      = TEME
TIME_SYSTEM    = UTC
MEAN_ELEMENT_THEORY = SGP/SGP4

EPOCH          = 2026-03-08T10:00:01.999584
MEAN_MOTION    = 16.08698382
ECCENTRICITY   = .0000873
INCLINATION    = 97.2807
RA_OF_ASC_NODE = 15.4717
ARG_OF_PERICENTER = 104.5361
MEAN_ANOMALY   = 235.9384

EPHEMERIS_TYPE = 0
CLASSIFICATION_TYPE = U
NORAD_CAT_ID   = 68026
ELEMENT_SET_NO = 999
REV_AT_EPOCH   = 221
BSTAR          = -.10966E-2
MEAN_MOTION_DOT = -.933222E-2
MEAN_MOTION_DDOT = .32014E-3

CCSDS_OMM_VERS = 2.0
CREATION_DATE  = 
ORIGINATOR     = 

OBJECT_NAME    = STARLINK-36940
OBJECT_ID      = 2026-040N
CENTER_NAME    = EARTH
REF_FRAME      = TEME
TIME_SYSTEM    = UTC
MEAN_ELEMENT_THEORY = SGP/SGP4

EPOCH          = 2026-03-08T10:00:01.999584
MEAN_MOTION    = 16.11022799
ECCENTRICITY   = .0000987
INCLINATION    = 97.2786
RA_OF_ASC_NODE = 15.4900
ARG_OF_PERICENTER = 108.9611
MEAN_ANOMALY   = 273.3840

EPHEMERIS_TYPE = 0
CLASSIFICATION_TYPE = U
NORAD_CAT_ID   = 68027
ELEMENT_SET_NO = 999
REV_AT_EPOCH   = 231
BSTAR          = -.93233E-3
MEAN_MOTION_DOT = -.922178E-2
MEAN_MOTION_DDOT = .32283E-3

CCSDS_OMM_VERS = 2.0
CREATION_DATE  = 
ORIGINATOR     = 

OBJECT_NAME    = STARLINK-36253
OBJECT_ID      = 2026-040P
CENTER_NAME    = EARTH
REF_FRAME      = TEME
TIME_SYSTEM    = UTC
MEAN_ELEMENT_THEORY = SGP/SGP4

EPOCH          = 2026-03-08T10:00:01.999584
MEAN_MOTION    = 15.99470293
ECCENTRICITY   = .0001695
INCLINATION    = 97.2798
RA_OF_ASC_NODE = 15.4427
ARG_OF_PERICENTER = 120.7681
MEAN_ANOMALY   = 156.2114

EPHEMERIS_TYPE = 0
CLASSIFICATION_TYPE = U
NORAD_CAT_ID   = 68028
ELEMENT_SET_NO = 999
REV_AT_EPOCH   = 231
BSTAR          = -.44151E-2
MEAN_MOTION_DOT = -.2147404E-1
MEAN_MOTION_DDOT = .13567E-2

CCSDS_OMM_VERS = 2.0
CREATION_DATE  = 
ORIGINATOR     = 

OBJECT_NAME    = STARLINK-36944
OBJECT_ID      = 2026-040Q
CENTER_NAME    = EARTH
REF_FRAME      = TEME
TIME_SYSTEM    = UTC
MEAN_ELEMENT_THEORY = SGP/SGP4

EPOCH          = 2026-03-08T10:00:01.999584
MEAN_MOTION    = 16.08945234
ECCENTRICITY   = .0000972
INCLINATION    = 97.2800
RA_OF_ASC_NODE = 15.4731
ARG_OF_PERICENTER = 98.3560
MEAN_ANOMALY   = 245.8520

EPHEMERIS_TYPE = 0
CLASSIFICATION_TYPE = U
NORAD_CAT_ID   = 68029
ELEMENT_SET_NO = 999
REV_AT_EPOCH   = 221
BSTAR          = -.11103E-2
MEAN_MOTION_DOT = -.959659E-2
MEAN_MOTION_DDOT = .33819E-3

CCSDS_OMM_VERS = 2.0
CREATION_DATE  = 
ORIGINATOR     = 

OBJECT_NAME    = STARLINK-36942
OBJECT_ID      = 2026-040R
CENTER_NAME    = EARTH
REF_FRAME      = TEME
TIME_SYSTEM    = UTC
MEAN_ELEMENT_THEORY = SGP/SGP4

EPOCH          = 2026-03-08T10:00:01.999584
MEAN_MOTION    = 16.09057607
ECCENTRICITY   = .0000986
INCLINATION    = 97.2807
RA_OF_ASC_NODE = 15.4741
ARG_OF_PERICENTER = 107.8597
MEAN_ANOMALY   = 238.3659

EPHEMERIS_TYPE = 0
CLASSIFICATION_TYPE = U
NORAD_CAT_ID   = 68030
ELEMENT_SET_NO = 999
REV_AT_EPOCH   = 221
BSTAR          = -.10693E-2
MEAN_MOTION_DOT = -.931102E-2
MEAN_MOTION_DDOT = .32027E-3

CCSDS_OMM_VERS = 2.0
CREATION_DATE  = 
ORIGINATOR     = 

OBJECT_NAME    = STARLINK-36913
OBJECT_ID      = 2026-040S
CENTER_NAME    = EARTH
REF_FRAME      = TEME
TIME_SYSTEM    = UTC
MEAN_ELEMENT_THEORY = SGP/SGP4

EPOCH          = 2026-03-08T10:00:01.999584
MEAN_MOTION    = 16.09183925
ECCENTRICITY   = .0000856
INCLINATION    = 97.2805
RA_OF_ASC_NODE = 15.4750
ARG_OF_PERICENTER = 101.2951
MEAN_ANOMALY   = 246.9272

EPHEMERIS_TYPE = 0
CLASSIFICATION_TYPE = U
NORAD_CAT_ID   = 68031
ELEMENT_SET_NO = 999
REV_AT_EPOCH   = 221
BSTAR          = -.1055E-2
MEAN_MOTION_DOT = -.926142E-2
MEAN_MOTION_DDOT = .31764E-3

CCSDS_OMM_VERS = 2.0
CREATION_DATE  = 
ORIGINATOR     = 

OBJECT_NAME    = STARLINK-36935
OBJECT_ID      = 2026-040T
CENTER_NAME    = EARTH
REF_FRAME      = TEME
TIME_SYSTEM    = UTC
MEAN_ELEMENT_THEORY = SGP/SGP4

EPOCH          = 2026-03-08T10:00:01.999584
MEAN_MOTION    = 16.10050979
ECCENTRICITY   = .0000992
INCLINATION    = 97.2796
RA_OF_ASC_NODE = 15.4807
ARG_OF_PERICENTER = 103.9660
MEAN_ANOMALY   = 257.6783

EPHEMERIS_TYPE = 0
CLASSIFICATION_TYPE = U
NORAD_CAT_ID   = 68032
ELEMENT_SET_NO = 999
REV_AT_EPOCH   = 231
BSTAR          = -.95208E-3
MEAN_MOTION_DOT = -.884146E-2
MEAN_MOTION_DDOT = .29482E-3

